     2.10           N: GPS NAV DATA                         RINEX VERSION / TYPE
teqc  2013Mar15     gpsops              20140508 00:23:28UTCPGM / RUN BY / DATE
Linux 2.4.21-27.ELsmp|Opteron|gcc -static|Linux x86_64|=+   COMMENT
GLPS                                    MARKER NAME         COMMENT
42005M002                               MARKER NUMBER       COMMENT
-33801.4662 -6377516.5323 -82154.3508                       COMMENT
                                                            COMMENT
This data is provided as a public service by NASA/JPL.      COMMENT
No warranty is expressed or implied regarding suitability   COMMENT
for use.  For further information, contact:                 COMMENT
Dave Stowers, NASA/JPL m/s 238-600                          COMMENT
4800 Oak Grove Drive, Pasadena CA 91109 USA                 COMMENT
                                                            END OF HEADER
 1 14  5  7 15 59 44.0 1.140404492617D-05 1.364242052659D-12 0.000000000000D+00
    1.000000000000D+00-1.953125000000D+01 4.365896142813D-09 2.473239369239D+00
   -9.536743164062D-07 2.996622934006D-03 9.255483746529D-06 5.153683080673D+03
    3.167840000000D+05-4.097819328308D-08-1.320181903973D+00-2.048909664154D-08
    9.605395950611D-01 1.994687500000D+02 3.074322577647D-01-7.947831059065D-09
    1.053615315878D-10 0.000000000000D+00 1.791000000000D+03 0.000000000000D+00
    2.000000000000D+00 0.000000000000D+00 5.587935447693D-09 1.000000000000D+00
    3.157500000000D+05 4.000000000000D+00
 1 14  5  7 17 59 44.0 1.141382381320D-05 1.364242052659D-12 0.000000000000D+00
    1.200000000000D+01-2.665625000000D+01 4.301250592923D-09-2.759855511106D+00
   -1.316890120506D-06 2.997482311912D-03 9.601935744286D-06 5.153681541443D+03
    3.239840000000D+05 3.166496753693D-08-1.320238709082D+00 3.166496753693D-08
    9.605407098047D-01 1.958125000000D+02 3.075155636347D-01-7.859255940985D-09
    9.071806448581D-11 0.000000000000D+00 1.791000000000D+03 0.000000000000D+00
    2.000000000000D+00 0.000000000000D+00 5.587935447693D-09 1.200000000000D+01
    3.168000000000D+05 4.000000000000D+00
 3 14  5  7 18  0  0.0 3.616977483034D-04 5.002220859751D-12 0.000000000000D+00
    6.500000000000D+01-3.793750000000D+01 5.012708799442D-09-2.006614361508D+00
   -1.829117536545D-06 1.694116252474D-02 4.626810550690D-06 5.153787979126D+03
    3.240000000000D+05 3.688037395477D-07-2.523973028831D+00 5.587935447693D-08
    9.382139261816D-01 2.753437500000D+02 1.378951464738D+00-8.188198214179D-09
   -7.643175511796D-11 0.000000000000D+00 1.791000000000D+03 0.000000000000D+00
    2.000000000000D+00 0.000000000000D+00-4.656612873077D-09 6.500000000000D+01
    3.168000000000D+05 4.000000000000D+00
11 14  5  7 18  0  0.0-4.869941622019D-04-3.183231456205D-12 0.000000000000D+00
    6.500000000000D+01-5.740625000000D+01 5.867744415107D-09 3.064165613494D+00
   -2.905726432800D-06 1.490355352871D-02 7.813796401024D-06 5.153703195572D+03
    3.240000000000D+05 1.192092895508D-07-1.642860426245D+00-6.146728992462D-08
    8.901426297392D-01 1.889375000000D+02 1.280755505408D+00-8.407493062976D-09
   -4.214461263514D-11 0.000000000000D+00 1.791000000000D+03 0.000000000000D+00
    2.000000000000D+00 0.000000000000D+00-1.210719347000D-08 6.500000000000D+01
    3.168000000000D+05 4.000000000000D+00
14 14  5  7 18  0  0.0 1.749699003994D-04-3.410605131648D-12 0.000000000000D+00
    9.600000000000D+01 4.312500000000D+00 4.618763818624D-09-7.095294763050D-01
    3.669410943985D-07 7.440023357049D-03 6.593763828278D-06 5.153652036667D+03
    3.240000000000D+05-4.842877388000D-08 8.436739132392D-01 1.117587089539D-07
    9.704548924616D-01 2.606875000000D+02-2.001693887751D+00-8.201413050345D-09
   -1.578637185147D-10 0.000000000000D+00 1.791000000000D+03 0.000000000000D+00
    2.800000000000D+00 0.000000000000D+00-9.313225746155D-09 9.600000000000D+01
    3.168000000000D+05 4.000000000000D+00
16 14  5  7 18  0  0.0-2.196063287556D-04 1.932676241267D-12 0.000000000000D+00
    8.600000000000D+01 1.418750000000D+01 4.091241845216D-09 3.089277945284D-01
    7.376074790955D-07 7.741525070742D-03 6.070360541344D-06 5.153581647873D+03
    3.240000000000D+05 4.284083843231D-08 2.921553084036D+00 3.725290298462D-08
    9.882438446428D-01 2.720000000000D+02 1.954875456295D-01-8.014262397626D-09
    3.571577341961D-11 0.000000000000D+00 1.791000000000D+03 0.000000000000D+00
    2.000000000000D+00 0.000000000000D+00-1.024454832077D-08 8.600000000000D+01
    3.168000000000D+05 4.000000000000D+00
18 14  5  7 18  0  0.0 3.178240731359D-04 2.273736754432D-12 0.000000000000D+00
    8.100000000000D+01 3.718750000000D+01 5.465941964137D-09 9.660181106232D-01
    1.940876245499D-06 1.520226476714D-02 7.783994078636D-06 5.153690063477D+03
    3.240000000000D+05-2.086162567139D-07-2.866002838351D-01 2.607703208923D-08
    9.261722261508D-01 2.113750000000D+02-2.041694806430D+00-8.741078386715D-09
    1.125046862718D-10 0.000000000000D+00 1.791000000000D+03 0.000000000000D+00
    2.000000000000D+00 0.000000000000D+00-1.117587089539D-08 8.100000000000D+01
    3.168000000000D+05 4.000000000000D+00
19 14  5  7 18  0  0.0-4.555024206638D-04-2.273736754432D-12 0.000000000000D+00
    6.000000000000D+01-5.487500000000D+01 4.408755070916D-09-1.414022781050D+00
   -2.857297658920D-06 1.028861186933D-02 5.953013896942D-06 5.153607425690D+03
    3.240000000000D+05 1.322478055954D-07-2.278998655522D+00-2.514570951462D-07
    9.655415665218D-01 2.677500000000D+02 4.228171870730D-01-7.991761460372D-09
   -9.428964182777D-11 0.000000000000D+00 1.791000000000D+03 0.000000000000D+00
    2.000000000000D+00 0.000000000000D+00-1.490116119385D-08 6.000000000000D+01
    3.168000000000D+05 4.000000000000D+00
22 14  5  7 18  0  0.0 2.324450761080D-04 3.069544618484D-12 0.000000000000D+00
    3.200000000000D+01 4.012500000000D+01 5.479156800302D-09 4.091837590260D-01
    2.071261405945D-06 7.159958011471D-03 7.554888725281D-06 5.153725448608D+03
    3.240000000000D+05-1.285225152969D-07-2.846760008924D-01 4.656612873077D-08
    9.239479806335D-01 2.150625000000D+02-2.059572699641D+00-8.595000873429D-09
    2.046513816944D-10 0.000000000000D+00 1.791000000000D+03 0.000000000000D+00
    2.000000000000D+00 0.000000000000D+00-1.722946763039D-08 3.200000000000D+01
    3.168000000000D+05 4.000000000000D+00
27 14  5  7 18  0  0.0-1.737335696816D-05 1.591615728103D-12 0.000000000000D+00
    6.300000000000D+01-5.153125000000D+01 4.544117852177D-09-5.355871985909D-01
   -2.799555659294D-06 1.204597880132D-03 5.811452865601D-06 5.153671531677D+03
    3.240000000000D+05 1.173466444016D-07-2.375285980744D+00-1.862645149231D-09
    9.632095039421D-01 2.711250000000D+02 1.062381905499D-01-8.174626220280D-09
   -2.178662178596D-10 0.000000000000D+00 1.791000000000D+03 0.000000000000D+00
    2.000000000000D+00 0.000000000000D+00 1.862645149231D-09 6.300000000000D+01
    3.168000000000D+05 4.000000000000D+00
31 14  5  7 18  0  0.0 3.342521376908D-04 0.000000000000D+00 0.000000000000D+00
    5.200000000000D+01 8.250000000000D+00 4.129457722775D-09 2.761886606086D+00
    6.575137376785D-07 7.998966961168D-03 9.356066584587D-06 5.153549257278D+03
    3.240000000000D+05 5.587935447693D-09 1.846364641527D+00 1.955777406693D-07
    9.783129934973D-01 2.080625000000D+02-6.369793749877D-01-7.784252816804D-09
   -1.039329006511D-10 0.000000000000D+00 1.791000000000D+03 0.000000000000D+00
    2.000000000000D+00 0.000000000000D+00-1.303851604462D-08 5.200000000000D+01
    3.168000000000D+05 4.000000000000D+00
32 14  5  7 18  0  0.0-4.338719882071D-04 8.071765478235D-12 0.000000000000D+00
    2.400000000000D+01 4.206250000000D+01 4.749840707074D-09-2.814721535376D+00
    2.298504114151D-06 1.141213625669D-02 7.594004273415D-06 5.153747165680D+03
    3.240000000000D+05-1.676380634308D-07-1.929640090169D-01 4.842877388000D-08
    9.481369141425D-01 2.265000000000D+02-1.621244787582D-01-8.029977337931D-09
    2.592965150264D-10 0.000000000000D+00 1.791000000000D+03 0.000000000000D+00
    2.000000000000D+00 0.000000000000D+00-3.259629011154D-09 2.400000000000D+01
    3.168000000000D+05 4.000000000000D+00
20 14  5  7 18  0  0.0 1.871194690466D-04 3.865352482535D-12 0.000000000000D+00
    9.200000000000D+01 3.631250000000D+01 5.300220775470D-09 1.493251216044D+00
    1.884996891022D-06 5.788331734948D-03 7.469207048416D-06 5.153800552368D+03
    3.240000000000D+05-1.285225152969D-07-3.396819298701D-01-1.192092895508D-07
    9.271328220492D-01 2.153125000000D+02 1.331993649373D+00-8.492496603715D-09
    2.617966191657D-10 0.000000000000D+00 1.791000000000D+03 0.000000000000D+00
    2.000000000000D+00 0.000000000000D+00-8.381903171539D-09 9.200000000000D+01
    3.186000000000D+05 4.000000000000D+00
23 14  5  7 18  0  0.0-1.860037446022D-05-3.069544618484D-12 0.000000000000D+00
    4.300000000000D+01 8.750000000000D-01 4.932348309248D-09-1.732130671795D+00
   -2.738088369370D-07 9.244835469872D-03 5.874782800674D-06 5.153554466248D+03
    3.240000000000D+05 8.568167686462D-08 7.786851775804D-01-1.098960638046D-07
    9.521419376535D-01 2.597812500000D+02-2.787313604240D+00-8.261415549690D-09
    3.000124967247D-11 0.000000000000D+00 1.791000000000D+03 0.000000000000D+00
    2.000000000000D+00 0.000000000000D+00-2.002343535423D-08 4.300000000000D+01
    3.228300000000D+05 4.000000000000D+00
 1 14  5  7 20  0  0.0 1.142360270023D-05 1.364242052659D-12 0.000000000000D+00
    1.300000000000D+01-3.209375000000D+01 4.280535444340D-09-1.707242893542D+00
   -1.575797796249D-06 2.997858449817D-03 9.864568710327D-06 5.153681568146D+03
    3.312000000000D+05-8.754432201385D-08-1.320294570608D+00-7.450580596924D-08
    9.605411033296D-01 1.909687500000D+02 3.074113687574D-01-7.813539751008D-09
   -3.464430021702D-11 0.000000000000D+00 1.791000000000D+03 0.000000000000D+00
    2.000000000000D+00 0.000000000000D+00 5.587935447693D-09 1.300000000000D+01
    3.240000000000D+05 4.000000000000D+00
